SENTINEL-5P             
1 42969U 17064A   26195.83234929 -.00000002  00000+0  20025-4 0  9996
2 42969  98.7929 137.7679 0001129  93.1727 266.9578 14.19523253453480
